NORAD_CAT_ID,OBJECT_NAME,OBJECT_TYPE,EPOCH,MEAN_MOTION,ECCENTRICITY,INCLINATION,RA_OF_ASC_NODE,ARG_OF_PERICENTER,MEAN_ANOMALY,BSTAR,MEAN_MOTION_DOT,MEAN_MOTION_DDOT,TLE_LINE0,TLE_LINE1,TLE_LINE2,SEMIMAJOR_AXIS,PERIOD,APOGEE,PERIGEE,DECAYED
53827.0,STARLINK-4764,PAYLOAD,2024-02-13 02:38:28,15.08833461,0.0001529,53.2198,96.1228,91.7403,268.3765,0.0002817,4.197e-05,0.0,0 STARLINK-4764,1 53827U 22114K   24044.11005636  .00004197  00000-0  28170-3 0  9993,2 53827  53.2198  96.1228 0001529  91.7403 268.3765 15.08833461 78229,6917.9,95.438,540.823,538.708,0.0
53827.0,STARLINK-4764,PAYLOAD,2024-02-13 10:35:25,15.08833619,0.0001272,53.2175,94.6251,83.9468,276.1669,0.00020815,3.026e-05,0.0,0 STARLINK-4764,1 53827U 22114K   24044.44126295  .00003026  00000-0  20815-3 0  9992,2 53827  53.2175  94.6251 0001272  83.9468 276.1669 15.08833619 78272,6917.9,95.438,540.645,538.885,0.0
53827.0,STARLINK-4764,PAYLOAD,2024-02-13 20:07:43,15.0884105,0.0001123,53.2161,92.8412,80.3183,279.7936,7.4601e-05,9e-06,0.0,0 STARLINK-4764,1 53827U 22114K   24044.83870232  .00000900  00000-0  74601-4 0  9993,2 53827  53.2161  92.8412 0001123  80.3183 279.7936 15.08841050 78876,6917.877,95.437,540.519,538.965,0.0
53827.0,STARLINK-4764,PAYLOAD,2024-02-14 12:01:34,15.08852647,0.0001214,53.2163,89.8701,86.6861,273.427,3.5835e-05,2.83e-06,0.0,0 STARLINK-4764,1 53827U 22114K   24045.50109362  .00000283  00000-0  35835-4 0  9997,2 53827  53.2163  89.8701 0001214  86.6861 273.4270 15.08852647 78436,6917.842,95.437,540.547,538.867,0.0
53827.0,STARLINK-4764,PAYLOAD,2024-02-14 19:58:31,15.0883459,0.000201,53.2169,88.3834,78.3485,281.7732,-5.982e-05,-1.24e-05,0.0,0 STARLINK-4764,1 53827U 22114K   24045.83230899 -.00001240  00000-0 -59820-4 0  9999,2 53827  53.2169  88.3834 0002010  78.3485 281.7732 15.08834590 78485,6917.897,95.438,541.152,538.371,0.0
53827.0,STARLINK-4764,PAYLOAD,2024-02-15 10:16:59,15.08829741,0.0001434,53.2169,85.707,78.6242,281.4911,-1.5937e-05,-5.41e-06,0.0,0 STARLINK-4764,1 53827U 22114K   24046.42847101 -.00000541  00000-0 -15937-4 0  9999,2 53827  53.2169  85.7070 0001434  78.6242 281.4911 15.08829741 79110,6917.912,95.438,540.769,538.785,0.0
53827.0,STARLINK-4764,PAYLOAD,2024-02-15 19:49:18,15.08839838,0.0001501,53.217,83.9233,78.8307,281.2854,4.1985e-05,3.8e-06,0.0,0 STARLINK-4764,1 53827U 22114K   24046.82590425  .00000380  00000-0  41985-4 0  9998,2 53827  53.2170  83.9233 0001501  78.8307 281.2854 15.08839838 78630,6917.881,95.438,540.784,538.708,0.0
53827.0,STARLINK-4764,PAYLOAD,2024-02-16 08:32:22,15.08851793,0.0001554,53.2168,81.5439,78.9413,281.1754,9.2832e-05,1.19e-05,0.0,0 STARLINK-4764,1 53827U 22114K   24047.35581450  .00001190  00000-0  92832-4 0  9992,2 53827  53.2168  81.5439 0001554  78.9413 281.1754 15.08851793 78717,6917.844,95.437,540.784,538.634,0.0
53827.0,STARLINK-4764,PAYLOAD,2024-02-17 08:23:09,15.0883704,0.0001595,53.2169,77.0836,81.4368,278.6805,0.00017807,2.547e-05,0.0,0 STARLINK-4764,1 53827U 22114K   24048.34942084  .00002547  00000-0  17807-3 0  9991,2 53827  53.2169  77.0836 0001595  81.4368 278.6805 15.08837040 78865,6917.889,95.438,540.858,538.651,0.0
53827.0,STARLINK-4764,PAYLOAD,2024-02-18 09:49:19,15.08850137,0.0001763,53.2181,72.3228,93.6625,266.4569,-1.0282e-05,-4.52e-06,0.0,0 STARLINK-4764,1 53827U 22114K   24049.40925737 -.00000452  00000-0 -10282-4 0  9991,2 53827  53.2181  72.3228 0001763  93.6625 266.4569 15.08850137 79023,6917.849,95.437,540.934,538.495,0.0
53827.0,STARLINK-4764,PAYLOAD,2024-02-19 08:04:44,15.08837624,0.0001656,53.2185,68.1641,95.9009,264.2172,2.6672e-06,-2.46e-06,0.0,0 STARLINK-4764,1 53827U 22114K   24050.33662556 -.00000246  00000-0  26672-5 0  9993,2 53827  53.2185  68.1641 0001656  95.9009 264.2172 15.08837624 79168,6917.888,95.438,540.898,538.607,0.0
53827.0,STARLINK-4764,PAYLOAD,2024-02-19 17:37:03,15.08838573,0.0001684,53.2186,66.3803,95.0229,265.0956,-4.3857e-05,-9.86e-06,0.0,0 STARLINK-4764,1 53827U 22114K   24050.73406699 -.00000986  00000-0 -43857-4 0  9996,2 53827  53.2186  66.3803 0001684  95.0229 265.0956 15.08838573 79764,6917.885,95.438,540.915,538.585,0.0
53827.0,STARLINK-4764,PAYLOAD,2024-02-20 01:33:59,15.08818324,0.0001886,53.22,64.8934,102.701,257.4193,0.00015501,2.178e-05,0.0,0 STARLINK-4764,1 53827U 22114K   24051.06527237  .00002178  00000-0  15501-3 0  9992,2 53827  53.2200  64.8934 0001886 102.7010 257.4193 15.08818324 79273,6917.947,95.439,541.116,538.507,0.0
53827.0,STARLINK-4764,PAYLOAD,2024-02-20 07:55:32,15.08829535,0.0001828,53.2199,63.7039,102.8663,257.2534,3.8586e-05,3.26e-06,0.0,0 STARLINK-4764,1 53827U 22114K   24051.33023276  .00000326  00000-0  38586-4 0  9998,2 53827  53.2199  63.7039 0001828 102.8663 257.2534 15.08829535 79852,6917.912,95.438,541.042,538.513,0.0
53827.0,STARLINK-4764,PAYLOAD,2024-02-20 17:27:50,15.08831847,0.0001831,53.2199,61.9197,100.5655,259.5544,3.5841e-05,2.82e-06,0.0,0 STARLINK-4764,1 53827U 22114K   24051.72767361  .00000282  00000-0  35841-4 0  9993,2 53827  53.2199  61.9197 0001831 100.5655 259.5544 15.08831847 79379,6917.905,95.438,541.037,538.504,0.0
53827.0,STARLINK-4764,PAYLOAD,2024-02-21 01:24:46,15.08838809,0.0001714,53.219,60.4327,100.1744,259.9442,7.3533e-05,8.82e-06,0.0,0 STARLINK-4764,1 53827U 22114K   24052.05886840  .00000882  00000-0  73533-4 0  9990,2 53827  53.2190  60.4327 0001714 100.1744 259.9442 15.08838809 79426,6917.884,95.438,540.935,538.563,0.0
53827.0,STARLINK-4764,PAYLOAD,2024-02-21 07:46:18,15.08843955,0.000173,53.2191,59.2436,100.9239,259.1947,0.00011495,1.542e-05,0.0,0 STARLINK-4764,1 53827U 22114K   24052.32382403  .00001542  00000-0  11495-3 0  9998,2 53827  53.2191  59.2436 0001730 100.9239 259.1947 15.08843955 80005,6917.868,95.437,540.93,538.537,0.0
53827.0,STARLINK-4764,PAYLOAD,2024-02-21 17:18:37,15.08840757,0.0001607,53.2187,57.4574,90.4548,269.6628,3.5329e-05,2.74e-06,0.0,0 STARLINK-4764,1 53827U 22114K   24052.72126835  .00000274  00000-0  35329-4 0  9991,2 53827  53.2187  57.4574 0001607  90.4548 269.6628 15.08840757 80067,6917.878,95.438,540.855,538.631,0.0
53827.0,STARLINK-4764,PAYLOAD,2024-02-22 04:26:20,15.08827728,0.0001687,53.219,55.3762,88.0262,272.0924,3.2145e-05,2.23e-06,0.0,0 STARLINK-4764,1 53827U 22114K   24053.18495920  .00000223  00000-0  32145-4 0  9993,2 53827  53.2190  55.3762 0001687  88.0262 272.0924 15.08827728 79597,6917.918,95.438,540.95,538.616,0.0
53827.0,STARLINK-4764,PAYLOAD,2024-02-22 09:12:29,15.08831868,0.000163,53.2184,54.4826,85.789,274.3289,1.652e-05,-2.5e-07,0.0,0 STARLINK-4764,1 53827U 22114K   24053.38367797 -.00000025  00000-0  16520-4 0  9995,2 53827  53.2184  54.4826 0001630  85.7890 274.3289 15.08831868 80164,6917.905,95.438,540.898,538.643,0.0
53827.0,STARLINK-4764,PAYLOAD,2024-02-22 17:09:25,15.08836107,0.0001636,53.2185,52.9956,84.8512,275.2667,2.962e-05,1.83e-06,0.0,0 STARLINK-4764,1 53827U 22114K   24053.71487579  .00000183  00000-0  29620-4 0  9992,2 53827  53.2185  52.9956 0001636  84.8512 275.2667 15.08836107 79674,6917.892,95.438,540.889,538.626,0.0
53827.0,STARLINK-4764,PAYLOAD,2024-02-23 05:52:29,15.08846784,0.0001415,53.2173,50.6166,88.4872,271.6282,7.7278e-06,-1.65e-06,0.0,0 STARLINK-4764,1 53827U 22114K   24054.24478907 -.00000165  00000-0  77278-5 0  9990,2 53827  53.2173  50.6166 0001415  88.4872 271.6282 15.08846784 79757,6917.86,95.437,540.704,538.746,0.0
53827.0,STARLINK-4764,PAYLOAD,2024-02-23 17:00:11,15.08849463,0.00014,53.2175,48.5357,93.3734,266.7418,1.0083e-05,-1.27e-06,0.0,0 STARLINK-4764,1 53827U 22114K   24054.70846555 -.00000127  00000-0  10083-4 0  9997,2 53827  53.2175  48.5357 0001400  93.3734 266.7418 15.08849463 80365,6917.851,95.437,540.685,538.748,0.0
53827.0,STARLINK-4764,PAYLOAD,2024-02-24 04:07:52,15.08897087,0.0001836,53.2177,46.455,73.5334,286.586,-0.00079358,-0.00012916,0.0,0 STARLINK-4764,1 53827U 22114K   24055.17213596 -.00012916  00000-0 -79358-3 0  9991,2 53827  53.2177  46.4550 0001836  73.5334 286.5860 15.08897087 79890,6917.706,95.434,540.841,538.301,0.0
53827.0,STARLINK-4764,PAYLOAD,2024-02-24 08:54:02,15.0884412,0.0001577,53.2188,45.5588,100.555,259.562,8.4637e-05,1.059e-05,0.0,0 STARLINK-4764,1 53827U 22114K   24055.37086728  .00001059  00000-0  84637-4 0  9999,2 53827  53.2188  45.5588 0001577 100.5550 259.5620 15.08844120 79924,6917.868,95.437,540.824,538.642,0.0
53827.0,STARLINK-4764,PAYLOAD,2024-02-24 16:50:59,15.08834904,0.0001733,53.2187,44.071,102.9726,257.1459,8.7627e-06,-1.49e-06,0.0,0 STARLINK-4764,1 53827U 22114K   24055.70207598 -.00000149  00000-0  87627-5 0  9999,2 53827  53.2187  44.0710 0001733 102.9726 257.1459 15.08834904 79977,6917.896,95.438,540.96,538.562,0.0
53827.0,STARLINK-4764,PAYLOAD,2024-02-25 05:34:03,15.08842641,0.0001468,53.2187,41.6937,100.1879,259.9279,2.355e-05,8.7e-07,0.0,0 STARLINK-4764,1 53827U 22114K   24056.23198971  .00000087  00000-0  23550-4 0  9996,2 53827  53.2187  41.6937 0001468 100.1879 259.9279 15.08842641 80053,6917.872,95.437,540.753,538.722,0.0
53827.0,STARLINK-4764,PAYLOAD,2024-02-25 23:03:18,15.08840213,0.0001266,53.2186,38.4229,101.4343,258.6792,4.4141e-05,4.15e-06,0.0,0 STARLINK-4764,1 53827U 22114K   24056.96062919  .00000415  00000-0  44141-4 0  9992,2 53827  53.2186  38.4229 0001266 101.4343 258.6792 15.08840213 80707,6917.88,95.438,540.621,538.869,0.0
53827.0,STARLINK-4764,PAYLOAD,2024-02-26 05:24:50,15.08851621,0.0001366,53.2183,37.2326,100.7952,259.3194,1.6897e-05,-1.9e-07,0.0,0 STARLINK-4764,1 53827U 22114K   24057.22558316 -.00000019  00000-0  16897-4 0  9991,2 53827  53.2183  37.2326 0001366 100.7952 259.3194 15.08851621 80741,6917.845,95.437,540.655,538.765,0.0
53827.0,STARLINK-4764,PAYLOAD,2024-02-26 22:54:05,15.0883625,0.0001455,53.2191,33.9627,102.0636,258.0519,-6.24e-06,-3.87e-06,0.0,0 STARLINK-4764,1 53827U 22114K   24057.95423426 -.00000387  00000-0 -62400-5 0  9995,2 53827  53.2191  33.9627 0001455 102.0636 258.0519 15.08836250 80850,6917.892,95.438,540.763,538.75,0.0
